[{"ORDINAL":"4","COMMENT":"GENERATED VIA SPACETRACK.ORG API","ORIGINATOR":"JSPOC","NORAD_CAT_ID":"40265","OBJECT_NAME":"CZ-2C DEB","OBJECT_TYPE":"DEBRIS","CLASSIFICATION_TYPE":"U","INTLDES":"14059E","EPOCH":"2014-11-27 19:25:16","EPOCH_MICROSECONDS":"881023","MEAN_MOTION":"14.18045564","ECCENTRICITY":"0.0199493","INCLINATION":"97.9396","RA_OF_ASC_NODE":"53.7682","ARG_OF_PERICENTER":"352.8873","MEAN_ANOMALY":"6.9472","EPHEMERIS_TYPE":"0","ELEMENT_SET_NO":"35","REV_AT_EPOCH":"858","BSTAR":"0.00064054","MEAN_MOTION_DOT":"1.559e-05","MEAN_MOTION_DDOT":"0","FILE":"1784844","TLE_LINE0":"0 CZ-2C DEB","TLE_LINE1":"1 40265U 14059E   14331.80922316  .00001559  00000-0  64054-3 0   352","TLE_LINE2":"2 40265 097.9396 053.7682 0199493 352.8873 006.9472 14.18045564  8581","OBJECT_ID":"2014-059E","OBJECT_NUMBER":"40265"},{"ORDINAL":"5","COMMENT":"GENERATED VIA SPACETRACK.ORG API","ORIGINATOR":"JSPOC","NORAD_CAT_ID":"40260","OBJECT_NAME":"BREEZE-M DEB (TANK)","OBJECT_TYPE":"DEBRIS","CLASSIFICATION_TYPE":"U","INTLDES":"14058C","EPOCH":"2014-11-27 18:46:54","EPOCH_MICROSECONDS":"186239","MEAN_MOTION":"2.27044604","ECCENTRICITY":"0.7199197","INCLINATION":"46.1523","RA_OF_ASC_NODE":"304.7931","ARG_OF_PERICENTER":"16.3622","MEAN_ANOMALY":"358.0554","EPHEMERIS_TYPE":"0","ELEMENT_SET_NO":"36","REV_AT_EPOCH":"135","BSTAR":"0.00081177","MEAN_MOTION_DOT":"1.56e-06","MEAN_MOTION_DDOT":"0","FILE":"1785165","TLE_LINE0":"0 BREEZE-M DEB (TANK)","TLE_LINE1":"1 40260U 14058C   14331.78257160  .00000156  00000-0  81177-3 0   369","TLE_LINE2":"2 40260 046.1523 304.7931 7199197 016.3622 358.0554 02.27044604  1353","OBJECT_ID":"2014-058C","OBJECT_NUMBER":"40260"},{"ORDINAL":"4","COMMENT":"GENERATED VIA SPACETRACK.ORG API","ORIGINATOR":"JSPOC","NORAD_CAT_ID":"40113","OBJECT_NAME":"CZ-4C DEB","OBJECT_TYPE":"DEBRIS","CLASSIFICATION_TYPE":"U","INTLDES":"14047E","EPOCH":"2014-11-27 13:34:18","EPOCH_MICROSECONDS":"982271","MEAN_MOTION":"13.43921188","ECCENTRICITY":"0.0019631","INCLINATION":"63.4185","RA_OF_ASC_NODE":"69.1457","ARG_OF_PERICENTER":"25.917","MEAN_ANOMALY":"334.2836","EPHEMERIS_TYPE":"0","ELEMENT_SET_NO":"77","REV_AT_EPOCH":"1482","BSTAR":"0","MEAN_MOTION_DOT":"-9e-07","MEAN_MOTION_DDOT":"0","FILE":"1784712","TLE_LINE0":"0 CZ-4C DEB","TLE_LINE1":"1 40113U 14047E   14331.56549748 -.00000090  00000-0  00000+0 0   771","TLE_LINE2":"2 40113 063.4185 069.1457 0019631 025.9170 334.2836 13.43921188 14828","OBJECT_ID":"2014-047E","OBJECT_NUMBER":"40113"},{"ORDINAL":"4","COMMENT":"GENERATED VIA SPACETRACK.ORG API","ORIGINATOR":"JSPOC","NORAD_CAT_ID":"39629","OBJECT_NAME":"CZ-2C DEB","OBJECT_TYPE":"DEBRIS","CLASSIFICATION_TYPE":"U","INTLDES":"14014F","EPOCH":"2014-11-27 08:56:25","EPOCH_MICROSECONDS":"61855","MEAN_MOTION":"14.21918578","ECCENTRICITY":"0.0180461","INCLINATION":"98.4701","RA_OF_ASC_NODE":"16.075","ARG_OF_PERICENTER":"190.7764","MEAN_ANOMALY":"168.9526","EPHEMERIS_TYPE":"0","ELEMENT_SET_NO":"136","REV_AT_EPOCH":"3426","BSTAR":"0.00097218","MEAN_MOTION_DOT":"2.489e-05","MEAN_MOTION_DDOT":"0","FILE":"1784586","TLE_LINE0":"0 CZ-2C DEB","TLE_LINE1":"1 39629U 14014F   14331.37251229  .00002489  00000-0  97218-3 0  1368","TLE_LINE2":"2 39629 098.4701 016.0750 0180461 190.7764 168.9526 14.21918578 34261","OBJECT_ID":"2014-014F","OBJECT_NUMBER":"39629"},{"ORDINAL":"4","COMMENT":"GENERATED VIA SPACETRACK.ORG API","ORIGINATOR":"JSPOC","NORAD_CAT_ID":"40263","OBJECT_NAME":"CZ-2C DEB","OBJECT_TYPE":"DEBRIS","CLASSIFICATION_TYPE":"U","INTLDES":"14059C","EPOCH":"2014-11-27 05:26:20","EPOCH_MICROSECONDS":"302368","MEAN_MOTION":"14.47049014","ECCENTRICITY":"0.0115328","INCLINATION":"98.3319","RA_OF_ASC_NODE":"58.4599","ARG_OF_PERICENTER":"38.6971","MEAN_ANOMALY":"322.2414","EPHEMERIS_TYPE":"0","ELEMENT_SET_NO":"44","REV_AT_EPOCH":"868","BSTAR":"0.0012668","MEAN_MOTION_DOT":"4.967e-05","MEAN_MOTION_DDOT":"0","FILE":"1784520","TLE_LINE0":"0 CZ-2C DEB","TLE_LINE1":"1 40263U 14059C   14331.22662387  .00004967  00000-0  12668-2 0   444","TLE_LINE2":"2 40263 098.3319 058.4599 0115328 038.6971 322.2414 14.47049014  8688","OBJECT_ID":"2014-059C","OBJECT_NUMBER":"40263"},{"ORDINAL":"5","COMMENT":"GENERATED VIA SPACETRACK.ORG API","ORIGINATOR":"JSPOC","NORAD_CAT_ID":"40290","OBJECT_NAME":"CZ-2C DEB","OBJECT_TYPE":"DEBRIS","CLASSIFICATION_TYPE":"U","INTLDES":"14066E","EPOCH":"2014-11-27 05:03:07","EPOCH_MICROSECONDS":"842816","MEAN_MOTION":"14.48895127","ECCENTRICITY":"0.0104486","INCLINATION":"97.9661","RA_OF_ASC_NODE":"83.7754","ARG_OF_PERICENTER":"130.2794","MEAN_ANOMALY":"230.7591","EPHEMERIS_TYPE":"0","ELEMENT_SET_NO":"27","REV_AT_EPOCH":"448","BSTAR":"0.0016156","MEAN_MOTION_DOT":"6.513e-05","MEAN_MOTION_DDOT":"0","FILE":"1784557","TLE_LINE0":"0 CZ-2C DEB","TLE_LINE1":"1 40290U 14066E   14331.21050744  .00006513  00000-0  16156-2 0   275","TLE_LINE2":"2 40290 097.9661 083.7754 0104486 130.2794 230.7591 14.48895127  4480","OBJECT_ID":"2014-066E","OBJECT_NUMBER":"40290"},{"ORDINAL":"5","COMMENT":"GENERATED VIA SPACETRACK.ORG API","ORIGINATOR":"JSPOC","NORAD_CAT_ID":"40149","OBJECT_NAME":"ARIANE 5 DEB (SYLDA)","OBJECT_TYPE":"DEBRIS","CLASSIFICATION_TYPE":"U","INTLDES":"14054D","EPOCH":"2014-11-27 02:10:50","EPOCH_MICROSECONDS":"558879","MEAN_MOTION":"2.31150683","ECCENTRICITY":"0.724436","INCLINATION":"6.0131","RA_OF_ASC_NODE":"117.2696","ARG_OF_PERICENTER":"240.9448","MEAN_ANOMALY":"29.6524","EPHEMERIS_TYPE":"0","ELEMENT_SET_NO":"74","REV_AT_EPOCH":"175","BSTAR":"0.0046036","MEAN_MOTION_DOT":"9.221e-05","MEAN_MOTION_DDOT":"0","FILE":"1784608","TLE_LINE0":"0 ARIANE 5 DEB (SYLDA)","TLE_LINE1":"1 40149U 14054D   14331.09086295  .00009221  00000-0  46036-2 0   742","TLE_LINE2":"2 40149 006.0131 117.2696 7244360 240.9448 029.6524 02.31150683  1750","OBJECT_ID":"2014-054D","OBJECT_NUMBER":"40149"},{"ORDINAL":"4","COMMENT":"GENERATED VIA SPACETRACK.ORG API","ORIGINATOR":"JSPOC","NORAD_CAT_ID":"40291","OBJECT_NAME":"CZ-2C DEB","OBJECT_TYPE":"DEBRIS","CLASSIFICATION_TYPE":"U","INTLDES":"14066F","EPOCH":"2014-11-26 21:20:47","EPOCH_MICROSECONDS":"893344","MEAN_MOTION":"14.21478851","ECCENTRICITY":"0.0180774","INCLINATION":"98.4415","RA_OF_ASC_NODE":"83.7541","ARG_OF_PERICENTER":"80.5596","MEAN_ANOMALY":"281.5957","EPHEMERIS_TYPE":"0","ELEMENT_SET_NO":"20","REV_AT_EPOCH":"434","BSTAR":"0.0015842","MEAN_MOTION_DOT":"4.051e-05","MEAN_MOTION_DDOT":"0","FILE":"1784389","TLE_LINE0":"0 CZ-2C DEB","TLE_LINE1":"1 40291U 14066F   14330.88944321  .00004051  00000-0  15842-2 0   200","TLE_LINE2":"2 40291 098.4415 083.7541 0180774 080.5596 281.5957 14.21478851  4346","OBJECT_ID":"2014-066F","OBJECT_NUMBER":"40291"},{"ORDINAL":"4","COMMENT":"GENERATED VIA SPACETRACK.ORG API","ORIGINATOR":"JSPOC","NORAD_CAT_ID":"39627","OBJECT_NAME":"CZ-2C DEB","OBJECT_TYPE":"DEBRIS","CLASSIFICATION_TYPE":"U","INTLDES":"14014D","EPOCH":"2014-11-26 20:09:05","EPOCH_MICROSECONDS":"546591","MEAN_MOTION":"14.20487172","ECCENTRICITY":"0.0185563","INCLINATION":"98.062","RA_OF_ASC_NODE":"4.0753","ARG_OF_PERICENTER":"184.4914","MEAN_ANOMALY":"175.4608","EPHEMERIS_TYPE":"0","ELEMENT_SET_NO":"136","REV_AT_EPOCH":"3416","BSTAR":"0.00094586","MEAN_MOTION_DOT":"2.376e-05","MEAN_MOTION_DDOT":"0","FILE":"1784303","TLE_LINE0":"0 CZ-2C DEB","TLE_LINE1":"1 39627U 14014D   14330.83964753  .00002376  00000-0  94586-3 0  1369","TLE_LINE2":"2 39627 098.0620 004.0753 0185563 184.4914 175.4608 14.20487172 34163","OBJECT_ID":"2014-014D","OBJECT_NUMBER":"39627"},{"ORDINAL":"4","COMMENT":"GENERATED VIA SPACETRACK.ORG API","ORIGINATOR":"JSPOC","NORAD_CAT_ID":"39626","OBJECT_NAME":"CZ-2C DEB","OBJECT_TYPE":"DEBRIS","CLASSIFICATION_TYPE":"U","INTLDES":"14014C","EPOCH":"2014-11-26 19:22:53","EPOCH_MICROSECONDS":"485536","MEAN_MOTION":"14.49006025","ECCENTRICITY":"0.0111337","INCLINATION":"98.0248","RA_OF_ASC_NODE":"13.2261","ARG_OF_PERICENTER":"206.8422","MEAN_ANOMALY":"152.6986","EPHEMERIS_TYPE":"0","ELEMENT_SET_NO":"152","REV_AT_EPOCH":"3482","BSTAR":"0.0015032","MEAN_MOTION_DOT":"6.127e-05","MEAN_MOTION_DDOT":"0","FILE":"1784302","TLE_LINE0":"0 CZ-2C DEB","TLE_LINE1":"1 39626U 14014C   14330.80756349  .00006127  00000-0  15032-2 0  1529","TLE_LINE2":"2 39626 098.0248 013.2261 0111337 206.8422 152.6986 14.49006025 34829","OBJECT_ID":"2014-014C","OBJECT_NUMBER":"39626"},{"ORDINAL":"5","COMMENT":"GENERATED VIA SPACETRACK.ORG API","ORIGINATOR":"JSPOC","NORAD_CAT_ID":"39628","OBJECT_NAME":"CZ-2C DEB","OBJECT_TYPE":"DEBRIS","CLASSIFICATION_TYPE":"U","INTLDES":"14014E","EPOCH":"2014-11-26 19:14:22","EPOCH_MICROSECONDS":"926336","MEAN_MOTION":"14.48930134","ECCENTRICITY":"0.0110805","INCLINATION":"98.4701","RA_OF_ASC_NODE":"25.6902","ARG_OF_PERICENTER":"214.5662","MEAN_ANOMALY":"144.8293","EPHEMERIS_TYPE":"0","ELEMENT_SET_NO":"177","REV_AT_EPOCH":"3483","BSTAR":"0.0012545","MEAN_MOTION_DOT":"5.088e-05","MEAN_MOTION_DDOT":"0","FILE":"1784304","TLE_LINE0":"0 CZ-2C DEB","TLE_LINE1":"1 39628U 14014E   14330.80165424  .00005088  00000-0  12545-2 0  1777","TLE_LINE2":"2 39628 098.4701 025.6902 0110805 214.5662 144.8293 14.48930134 34830","OBJECT_ID":"2014-014E","OBJECT_NUMBER":"39628"},{"ORDINAL":"4","COMMENT":"GENERATED VIA SPACETRACK.ORG API","ORIGINATOR":"JSPOC","NORAD_CAT_ID":"40078","OBJECT_NAME":"FREGAT DEB","OBJECT_TYPE":"DEBRIS","CLASSIFICATION_TYPE":"U","INTLDES":"14037K","EPOCH":"2014-11-26 16:58:14","EPOCH_MICROSECONDS":"580479","MEAN_MOTION":"14.51527972","ECCENTRICITY":"0.0138771","INCLINATION":"98.3645","RA_OF_ASC_NODE":"21.7757","ARG_OF_PERICENTER":"150.5815","MEAN_ANOMALY":"210.3273","EPHEMERIS_TYPE":"0","ELEMENT_SET_NO":"149","REV_AT_EPOCH":"2045","BSTAR":"0.00024426","MEAN_MOTION_DOT":"1.056e-05","MEAN_MOTION_DDOT":"0","FILE":"1784389","TLE_LINE0":"0 FREGAT DEB","TLE_LINE1":"1 40078U 14037K   14330.70711320  .00001056  00000-0  24426-3 0  1496","TLE_LINE2":"2 40078 098.3645 021.7757 0138771 150.5815 210.3273 14.51527972 20459","OBJECT_ID":"2014-037K","OBJECT_NUMBER":"40078"}]